{
  "type": "FeatureCollection",
  "features": [
    {
      "type": "Feature",
      "properties": {
        "norad_id": 30662,
        "name": "FENGYUN 1C DEB",
        "group": "fengyun-1c-debris",
        "lat": 57.48854568949303,
        "lon": 19.88470609307284,
        "alt_km": 824.8210108490939,
        "timestamp": "2025-12-04T07:39:36.413133+00:00",
        "meta_object_name": "FENGYUN 1C DEB",
        "meta_object_id": "1999-025APU",
        "meta_epoch": "2025-12-03T02:48:18.846720",
        "meta_mean_motion": 14.22256685,
        "meta_eccentricity": 0.00325542,
        "meta_inclination": 99.0531,
        "meta_ra_of_asc_node": 33.1374,
        "meta_arg_of_pericenter": 299.1565,
        "meta_mean_anomaly": 86.7895,
        "meta_ephemeris_type": 0,
        "meta_classification_type": "U",
        "meta_norad_cat_id": 30662,
        "meta_element_set_no": 999,
        "meta_rev_at_epoch": 96502,
        "meta_bstar": 0.0019182856,
        "meta_mean_motion_dot": 4.237e-05,
        "meta_mean_motion_ddot": 0,
        "tle_line1": "1 30662U 99025APU 25337.11688480  .00004237  00000+0  19183-2 0  9997",
        "tle_line2": "2 30662  99.0531  33.1374 0032554 299.1565  86.7895 14.22256685965029"
      },
      "geometry": {
        "type": "Point",
        "coordinates": [
          19.88470609307284,
          57.48854568949303
        ]
      }
    },
    {
      "type": "Feature",
      "properties": {
        "norad_id": 30663,
        "name": "FENGYUN 1C DEB",
        "group": "fengyun-1c-debris",
        "lat": 48.8403842418038,
        "lon": -114.67721883888207,
        "alt_km": 1284.5720018031661,
        "timestamp": "2025-12-04T07:39:36.413142+00:00",
        "meta_object_name": "FENGYUN 1C DEB",
        "meta_object_id": "1999-025APV",
        "meta_epoch": "2025-12-03T05:58:44.450976",
        "meta_mean_motion": 13.23082031,
        "meta_eccentricity": 0.0647478,
        "meta_inclination": 99.3023,
        "meta_ra_of_asc_node": 255.1673,
        "meta_arg_of_pericenter": 159.6931,
        "meta_mean_anomaly": 203.1261,
        "meta_ephemeris_type": 0,
        "meta_classification_type": "U",
        "meta_norad_cat_id": 30663,
        "meta_element_set_no": 999,
        "meta_rev_at_epoch": 88922,
        "meta_bstar": 0.0017653,
        "meta_mean_motion_dot": 2.262e-05,
        "meta_mean_motion_ddot": 0,
        "tle_line1": "1 30663U 99025APV 25337.24912559  .00002262  00000+0  17653-2 0  9995",
        "tle_line2": "2 30663  99.3023 255.1673 0647478 159.6931 203.1261 13.23082031889222"
      },
      "geometry": {
        "type": "Point",
        "coordinates": [
          -114.67721883888207,
          48.8403842418038
        ]
      }
    },
    {
      "type": "Feature",
      "properties": {
        "norad_id": 30665,
        "name": "FENGYUN 1C DEB",
        "group": "fengyun-1c-debris",
        "lat": 76.99561600369421,
        "lon": -94.9233216137903,
        "alt_km": 884.8640766821582,
        "timestamp": "2025-12-04T07:39:36.413151+00:00",
        "meta_object_name": "FENGYUN 1C DEB",
        "meta_object_id": "1999-025APX",
        "meta_epoch": "2025-12-03T09:53:30.923808",
        "meta_mean_motion": 14.12252026,
        "meta_eccentricity": 0.00678337,
        "meta_inclination": 99.2075,
        "meta_ra_of_asc_node": 308.7594,
        "meta_arg_of_pericenter": 229.226,
        "meta_mean_anomaly": 283.2134,
        "meta_ephemeris_type": 0,
        "meta_classification_type": "U",
        "meta_norad_cat_id": 30665,
        "meta_element_set_no": 999,
        "meta_rev_at_epoch": 95838,
        "meta_bstar": 0.002235862,
        "meta_mean_motion_dot": 4.157e-05,
        "meta_mean_motion_ddot": 0,
        "tle_line1": "1 30665U 99025APX 25337.41216347  .00004157  00000+0  22359-2 0  9992",
        "tle_line2": "2 30665  99.2075 308.7594 0067833 229.2260 283.2134 14.12252026958381"
      },
      "geometry": {
        "type": "Point",
        "coordinates": [
          -94.9233216137903,
          76.99561600369421
        ]
      }
    },
    {
      "type": "Feature",
      "properties": {
        "norad_id": 30666,
        "name": "FENGYUN 1C DEB",
        "group": "fengyun-1c-debris",
        "lat": -7.435368762883446,
        "lon": 141.0396410261901,
        "alt_km": 847.3538534148811,
        "timestamp": "2025-12-04T07:39:36.413160+00:00",
        "meta_object_name": "FENGYUN 1C DEB",
        "meta_object_id": "1999-025APY",
        "meta_epoch": "2025-12-03T22:28:23.141280",
        "meta_mean_motion": 14.0254773,
        "meta_eccentricity": 0.0060715,
        "meta_inclination": 98.8224,
        "meta_ra_of_asc_node": 321.8303,
        "meta_arg_of_pericenter": 168.3135,
        "meta_mean_anomaly": 247.1376,
        "meta_ephemeris_type": 0,
        "meta_classification_type": "U",
        "meta_norad_cat_id": 30666,
        "meta_element_set_no": 999,
        "meta_rev_at_epoch": 95987,
        "meta_bstar": 0.00029353095,
        "meta_mean_motion_dot": 4.17e-06,
        "meta_mean_motion_ddot": 0,
        "tle_line1": "1 30666U 99025APY 25337.93637895  .00000417  00000+0  29353-3 0  9992",
        "tle_line2": "2 30666  98.8224 321.8303 0060715 168.3135 247.1376 14.02547730959873"
      },
      "geometry": {
        "type": "Point",
        "coordinates": [
          141.0396410261901,
          -7.435368762883446
        ]
      }
    },
    {
      "type": "Feature",
      "properties": {
        "norad_id": 30668,
        "name": "FENGYUN 1C DEB",
        "group": "fengyun-1c-debris",
        "lat": 7.165598190396868,
        "lon": -127.621441158821,
        "alt_km": 860.207617061149,
        "timestamp": "2025-12-04T07:39:36.413169+00:00",
        "meta_object_name": "FENGYUN 1C DEB",
        "meta_object_id": "1999-025AQA",
        "meta_epoch": "2025-12-03T03:46:19.506144",
        "meta_mean_motion": 14.12223902,
        "meta_eccentricity": 0.00784298,
        "meta_inclination": 99.1324,
        "meta_ra_of_asc_node": 50.0364,
        "meta_arg_of_pericenter": 272.9786,
        "meta_mean_anomaly": 116.1609,
        "meta_ephemeris_type": 0,
        "meta_classification_type": "U",
        "meta_norad_cat_id": 30668,
        "meta_element_set_no": 999,
        "meta_rev_at_epoch": 95920,
        "meta_bstar": 0.0023512126,
        "meta_mean_motion_dot": 4.404e-05,
        "meta_mean_motion_ddot": 0,
        "tle_line1": "1 30668U 99025AQA 25337.15717021  .00004404  00000+0  23512-2 0  9998",
        "tle_line2": "2 30668  99.1324  50.0364 0078429 272.9786 116.1609 14.12223902959207"
      },
      "geometry": {
        "type": "Point",
        "coordinates": [
          -127.621441158821,
          7.165598190396868
        ]
      }
    },
    {
      "type": "Feature",
      "properties": {
        "norad_id": 30669,
        "name": "FENGYUN 1C DEB",
        "group": "fengyun-1c-debris",
        "lat": 20.464924409254603,
        "lon": 98.67226213489387,
        "alt_km": 819.9829335091008,
        "timestamp": "2025-12-04T07:39:36.413178+00:00",
        "meta_object_name": "FENGYUN 1C DEB",
        "meta_object_id": "1999-025AQB",
        "meta_epoch": "2025-12-03T07:39:27.780192",
        "meta_mean_motion": 14.02671231,
        "meta_eccentricity": 0.0117462,
        "meta_inclination": 98.634,
        "meta_ra_of_asc_node": 274.4734,
        "meta_arg_of_pericenter": 203.3551,
        "meta_mean_anomaly": 309.3885,
        "meta_ephemeris_type": 0,
        "meta_classification_type": "U",
        "meta_norad_cat_id": 30669,
        "meta_element_set_no": 999,
        "meta_rev_at_epoch": 95321,
        "meta_bstar": 0.0015317,
        "meta_mean_motion_dot": 2.471e-05,
        "meta_mean_motion_ddot": 0,
        "tle_line1": "1 30669U 99025AQB 25337.31907153  .00002471  00000+0  15317-2 0  9990",
        "tle_line2": "2 30669  98.6340 274.4734 0117462 203.3551 309.3885 14.02671231953210"
      },
      "geometry": {
        "type": "Point",
        "coordinates": [
          98.67226213489387,
          20.464924409254603
        ]
      }
    },
    {
      "type": "Feature",
      "properties": {
        "norad_id": 30670,
        "name": "FENGYUN 1C DEB",
        "group": "fengyun-1c-debris",
        "lat": 45.532667260388685,
        "lon": 13.950285923966941,
        "alt_km": 815.7432146471783,
        "timestamp": "2025-12-04T07:39:36.413188+00:00",
        "meta_object_name": "FENGYUN 1C DEB",
        "meta_object_id": "1999-025AQC",
        "meta_epoch": "2025-12-03T23:31:33.440160",
        "meta_mean_motion": 14.15812324,
        "meta_eccentricity": 0.00400179,
        "meta_inclination": 98.7121,
        "meta_ra_of_asc_node": 22.6061,
        "meta_arg_of_pericenter": 94.097,
        "meta_mean_anomaly": 26.0342,
        "meta_ephemeris_type": 0,
        "meta_classification_type": "U",
        "meta_norad_cat_id": 30670,
        "meta_element_set_no": 999,
        "meta_rev_at_epoch": 97028,
        "meta_bstar": 0.00017437876,
        "meta_mean_motion_dot": 3.03e-06,
        "meta_mean_motion_ddot": 0,
        "tle_line1": "1 30670U 99025AQC 25337.98024815  .00000303  00000+0  17438-3 0  9999",
        "tle_line2": "2 30670  98.7121  22.6061 0040017  94.0970  26.0342 14.15812324970288"
      },
      "geometry": {
        "type": "Point",
        "coordinates": [
          13.950285923966941,
          45.532667260388685
        ]
      }
    }
  ]
}